<html>
<head>
       <meta http-equiv='refresh' content='60'>
</head>
   <body>
       <pre style='word - wrap: break-word; white - space: pre - wrap; '>
2021/05/23 18:20
EDDF 231820Z 19007KT CAVOK 16/05 Q1016 NOSIG
       </pre>
   </body>
</html>